{"type": "FeatureCollection", "features": [ {"type": "Feature", "properties": {"norad_id": 34375, "name": "IRIDIUM 33 DEB", "group": "iridium-33-debris", "lat": -31.40562626053789, "lon": 1.392127762317547, "alt_km": 865.2276156102726, "timestamp": "2025-12-21T09:37:23.039808+00:00", "meta": {"OBJECT_NAME": "IRIDIUM 33 DEB", "OBJECT_ID": "1997-051FT", "EPOCH": "2025-12-21T00:46:06.767328", "MEAN_MOTION": 14.18006296, "ECCENTRICITY": 0.0103701, "INCLINATION": 86.4323, "RA_OF_ASC_NODE": 179.3579, "ARG_OF_PERICENTER": 100.8025, "MEAN_ANOMALY": 27.2657, "EPHEMERIS_TYPE": 0, "CLASSIFICATION_TYPE": "U", "NORAD_CAT_ID": 34375, "ELEMENT_SET_NO": 999, "REV_AT_EPOCH": 86829, "BSTAR": 0.00030848, "MEAN_MOTION_DOT": 6.86e-06, "MEAN_MOTION_DDOT": 0}, "tle": {"line1": "1 34375U 97051FT  25355.03202277  .00000686  00000+0  30848-3 0  9992", "line2": "2 34375  86.4323 179.3579 0103701 100.8025  27.2657 14.18006296868298"}}, "geometry": {"type": "Point", "coordinates": [1.392127762317547, -31.40562626053789]}}, {"type": "Feature", "properties": {"norad_id": 34376, "name": "IRIDIUM 33 DEB", "group": "iridium-33-debris", "lat": 7.601628194383444, "lon": -177.84959205194886, "alt_km": 670.1622011543141, "timestamp": "2025-12-21T09:37:23.039818+00:00", "meta": {"OBJECT_NAME": "IRIDIUM 33 DEB", "OBJECT_ID": "1997-051FU", "EPOCH": "2025-12-21T00:37:48.894240", "MEAN_MOTION": 14.62669201, "ECCENTRICITY": 0.0028109, "INCLINATION": 86.2976, "RA_OF_ASC_NODE": 2.814, "ARG_OF_PERICENTER": 139.3438, "MEAN_ANOMALY": 220.9879, "EPHEMERIS_TYPE": 0, "CLASSIFICATION_TYPE": "U", "NORAD_CAT_ID": 34376, "ELEMENT_SET_NO": 999, "REV_AT_EPOCH": 88128, "BSTAR": 0.000896, "MEAN_MOTION_DOT": 4.606e-05, "MEAN_MOTION_DDOT": 0}, "tle": {"line1": "1 34376U 97051FU  25355.02626035  .00004606  00000+0  89600-3 0  9990", "line2": "2 34376  86.2976   2.8140 0028109 139.3438 220.9879 14.62669201881280"}}, "geometry": {"type": "Point", "coordinates": [-177.84959205194886, 7.601628194383444]}}, {"type": "Feature", "properties": {"norad_id": 34486, "name": "IRIDIUM 33 DEB", "group": "iridium-33-debris", "lat": -12.83019911838708, "lon": 7.20254179435433, "alt_km": 585.1600645574463, "timestamp": "2025-12-21T09:37:23.039828+00:00", "meta": {"OBJECT_NAME": "IRIDIUM 33 DEB", "OBJECT_ID": "1997-051GB", "EPOCH": "2025-12-21T01:57:25.087104", "MEAN_MOTION": 14.96136248, "ECCENTRICITY": 0.001392, "INCLINATION": 86.3926, "RA_OF_ASC_NODE": 8.1733, "ARG_OF_PERICENTER": 88.5923, "MEAN_ANOMALY": 339.5471, "EPHEMERIS_TYPE": 0, "CLASSIFICATION_TYPE": "U", "NORAD_CAT_ID": 34486, "ELEMENT_SET_NO": 999, "REV_AT_EPOCH": 89111, "BSTAR": 0.0013205, "MEAN_MOTION_DOT": 0.00014928, "MEAN_MOTION_DDOT": 0}, "tle": {"line1": "1 34486U 97051GB  25355.08154036  .00014928  00000+0  13205-2 0  9990", "line2": "2 34486  86.3926   8.1733 0013920  88.5923 339.5471 14.96136248891119"}}, "geometry": {"type": "Point", "coordinates": [7.20254179435433, -12.83019911838708]}}, {"type": "Feature", "properties": {"norad_id": 34487, "name": "IRIDIUM 33 DEB", "group": "iridium-33-debris", "lat": 19.680234464057875, "lon": -172.66259146671496, "alt_km": 735.7366483946316, "timestamp": "2025-12-21T09:37:23.039840+00:00", "meta": {"OBJECT_NAME": "IRIDIUM 33 DEB", "OBJECT_ID": "1997-051GC", "EPOCH": "2025-12-21T00:51:13.870080", "MEAN_MOTION": 14.43225793, "ECCENTRICITY": 0.0033211, "INCLINATION": 86.343, "RA_OF_ASC_NODE": 8.8054, "ARG_OF_PERICENTER": 102.5675, "MEAN_ANOMALY": 320.0917, "EPHEMERIS_TYPE": 0, "CLASSIFICATION_TYPE": "U", "NORAD_CAT_ID": 34487, "ELEMENT_SET_NO": 999, "REV_AT_EPOCH": 88368, "BSTAR": 0.00013015, "MEAN_MOTION_DOT": 4.61e-06, "MEAN_MOTION_DDOT": 0}, "tle": {"line1": "1 34487U 97051GC  25355.03557720  .00000461  00000+0  13015-3 0  9990", "line2": "2 34487  86.3430   8.8054 0033211 102.5675 320.0917 14.43225793883688"}}, "geometry": {"type": "Point", "coordinates": [-172.66259146671496, 19.680234464057875]}}, {"type": "Feature", "properties": {"norad_id": 34488, "name": "IRIDIUM 33 DEB", "group": "iridium-33-debris", "lat": -35.59674432770537, "lon": -61.12071885783654, "alt_km": 475.72038534311287, "timestamp": "2025-12-21T09:37:23.039851+00:00", "meta": {"OBJECT_NAME": "IRIDIUM 33 DEB", "OBJECT_ID": "1997-051GD", "EPOCH": "2025-12-20T21:13:54.490080", "MEAN_MOTION": 15.31302202, "ECCENTRICITY": 0.0010948, "INCLINATION": 86.3254, "RA_OF_ASC_NODE": 301.7725, "ARG_OF_PERICENTER": 38.0894, "MEAN_ANOMALY": 322.1127, "EPHEMERIS_TYPE": 0, "CLASSIFICATION_TYPE": "U", "NORAD_CAT_ID": 34488, "ELEMENT_SET_NO": 999, "REV_AT_EPOCH": 89364, "BSTAR": 0.0030791, "MEAN_MOTION_DOT": 0.00094223, "MEAN_MOTION_DDOT": 0}, "tle": {"line1": "1 34488U 97051GD  25354.88465845  .00094223  00000+0  30791-2 0  9997", "line2": "2 34488  86.3254 301.7725 0010948  38.0894 322.1127 15.31302202893643"}}, "geometry": {"type": "Point", "coordinates": [-61.12071885783654, -35.59674432770537]}}, {"type": "Feature", "properties": {"norad_id": 34492, "name": "IRIDIUM 33 DEB", "group": "iridium-33-debris", "lat": 65.92291218493548, "lon": -20.9340439883887, "alt_km": 907.7874818158007, "timestamp": "2025-12-21T09:37:23.039861+00:00", "meta": {"OBJECT_NAME": "IRIDIUM 33 DEB", "OBJECT_ID": "1997-051GH", "EPOCH": "2025-12-19T10:45:18.347328", "MEAN_MOTION": 14.25846982, "ECCENTRICITY": 0.0188646, "INCLINATION": 86.4707, "RA_OF_ASC_NODE": 331.9164, "ARG_OF_PERICENTER": 216.3823, "MEAN_ANOMALY": 273.3437, "EPHEMERIS_TYPE": 0, "CLASSIFICATION_TYPE": "U", "NORAD_CAT_ID": 34492, "ELEMENT_SET_NO": 999, "REV_AT_EPOCH": 85154, "BSTAR": 0.0022012, "MEAN_MOTION_DOT": 6.332e-05, "MEAN_MOTION_DDOT": 0}, "tle": {"line1": "1 34492U 97051GH  25353.44812902  .00006332  00000+0  22012-2 0  9994", "line2": "2 34492  86.4707 331.9164 0188646 216.3823 273.3437 14.25846982851542"}}, "geometry": {"type": "Point", "coordinates": [-20.9340439883887, 65.92291218493548]}}, {"type": "Feature", "properties": {"norad_id": 34497, "name": "IRIDIUM 33 DEB", "group": "iridium-33-debris", "lat": -2.0144544879495365, "lon": 48.57029312289464, "alt_km": 764.9318733481005, "timestamp": "2025-12-21T09:37:23.039873+00:00", "meta": {"OBJECT_NAME": "IRIDIUM 33 DEB", "OBJECT_ID": "1997-051GN", "EPOCH": "2025-12-21T03:02:18.964896", "MEAN_MOTION": 14.27475874, "ECCENTRICITY": 0.0078047, "INCLINATION": 86.2771, "RA_OF_ASC_NODE": 48.8187, "ARG_OF_PERICENTER": 312.1215, "MEAN_ANOMALY": 76.3389, "EPHEMERIS_TYPE": 0, "CLASSIFICATION_TYPE": "U", "NORAD_CAT_ID": 34497, "ELEMENT_SET_NO": 999, "REV_AT_EPOCH": 87003, "BSTAR": 0.00042942, "MEAN_MOTION_DOT": 1.107e-05, "MEAN_MOTION_DDOT": 0}, "tle": {"line1": "1 34497U 97051GN  25355.12660839  .00001107  00000+0  42942-3 0  9996", "line2": "2 34497  86.2771  48.8187 0078047 312.1215  76.3389 14.27475874870030"}}, "geometry": {"type": "Point", "coordinates": [48.57029312289464, -2.0144544879495365]}}, {"type": "Feature", "properties": {"norad_id": 34508, "name": "IRIDIUM 33 DEB", "group": "iridium-33-debris", "lat": 42.13346506744216, "lon": -84.3195214029324, "alt_km": 712.9735999764816, "timestamp": "2025-12-21T09:37:23.039883+00:00", "meta": {"OBJECT_NAME": "IRIDIUM 33 DEB", "OBJECT_ID": "1997-051GZ", "EPOCH": "2025-12-21T00:38:21.314976", "MEAN_MOTION": 14.38484044, "ECCENTRICITY": 0.006661, "INCLINATION": 86.371, "RA_OF_ASC_NODE": 99.1304, "ARG_OF_PERICENTER": 146.3518, "MEAN_ANOMALY": 214.1938, "EPHEMERIS_TYPE": 0, "CLASSIFICATION_TYPE": "U", "NORAD_CAT_ID": 34508, "ELEMENT_SET_NO": 999, "REV_AT_EPOCH": 87428, "BSTAR": 0.00080829, "MEAN_MOTION_DOT": 2.552e-05, "MEAN_MOTION_DDOT": 0}, "tle": {"line1": "1 34508U 97051GZ  25355.02663559  .00002552  00000+0  80829-3 0  9991", "line2": "2 34508  86.3710  99.1304 0066610 146.3518 214.1938 14.38484044874287"}}, "geometry": {"type": "Point", "coordinates": [-84.3195214029324, 42.13346506744216]}}, {"type": "Feature", "properties": {"norad_id": 34521, "name": "IRIDIUM 33 DEB", "group": "iridium-33-debris", "lat": 11.945436359970465, "lon": 27.5023471658082, "alt_km": 685.2820375650481, "timestamp": "2025-12-21T09:37:23.039894+00:00", "meta": {"OBJECT_NAME": "IRIDIUM 33 DEB", "OBJECT_ID": "1997-051HN", "EPOCH": "2025-12-20T20:26:24.360576", "MEAN_MOTION": 14.63427269, "ECCENTRICITY": 0.0002559, "INCLINATION": 86.3787, "RA_OF_ASC_NODE": 26.9765, "ARG_OF_PERICENTER": 179.8016, "MEAN_ANOMALY": 180.3197, "EPHEMERIS_TYPE": 0, "CLASSIFICATION_TYPE": "U", "NORAD_CAT_ID": 34521, "ELEMENT_SET_NO": 999, "REV_AT_EPOCH": 88591, "BSTAR": 0.00054052, "MEAN_MOTION_DOT": 2.817e-05, "MEAN_MOTION_DDOT": 0}, "tle": {"line1": "1 34521U 97051HN  25354.85167084  .00002817  00000+0  54052-3 0  9991", "line2": "2 34521  86.3787  26.9765 0002559 179.8016 180.3197 14.63427269885918"}}, "geometry": {"type": "Point", "coordinates": [27.5023471658082, 11.945436359970465]}}, {"type": "Feature", "properties": {"norad_id": 34525, "name": "IRIDIUM 33 DEB", "group": "iridium-33-debris", "lat": -85.12664067860264, "lon": -4.938394398393395, "alt_km": 760.6783708432331, "timestamp": "2025-12-21T09:37:23.039904+00:00", "meta": {"OBJECT_NAME": "IRIDIUM 33 DEB", "OBJECT_ID": "1997-051HS", "EPOCH": "2025-12-21T03:29:36.485088", "MEAN_MOTION": 14.42923507, "ECCENTRICITY": 0.0006444, "INCLINATION": 86.372, "RA_OF_ASC_NODE": 43.2557, "ARG_OF_PERICENTER": 76.0018, "MEAN_ANOMALY": 311.4456, "EPHEMERIS_TYPE": 0, "CLASSIFICATION_TYPE": "U", "NORAD_CAT_ID": 34525, "ELEMENT_SET_NO": 999, "REV_AT_EPOCH": 88209, "BSTAR": 0.00023925, "MEAN_MOTION_DOT": 8.19e-06, "MEAN_MOTION_DDOT": 0}, "tle": {"line1": "1 34525U 97051HS  25355.14556117  .00000819  00000+0  23925-3 0  9992", "line2": "2 34525  86.3720  43.2557 0006444  76.0018 311.4456 14.42923507882091"}}, "geometry": {"type": "Point", "coordinates": [-4.938394398393395, -85.12664067860264]}}]}